ORBCOMM FM20 [+]        
1 25416U 98046D   24075.68956727  .00001238  00000+0  48003-3 0  9994
2 25416  44.9938 188.7692 0001388 209.9012 150.1755 14.34974801338358
ORBCOMM FM16 [-]        
1 25417U 98046E   24075.75418660  .00001759  00000+0  64976-3 0  9997
2 25417  44.9943 184.6344 0004552 173.3216 186.7692 14.35868104338297
ORBCOMM FM15 [-]        
1 25418U 98046F   24075.42198791  .00001626  00000+0  60736-3 0  9995
2 25418  44.9968 190.1339 0004191 174.0448 186.0450 14.35604240338255
ORBCOMM FM14 [-]        
1 25419U 98046G   24075.47681310  .00001873  00000+0  69026-3 0  9990
2 25419  44.9950 189.0611 0002904 174.1979 310.1848 14.35751988338216
ORBCOMM FM13 [+]        
1 25420U 98046H   24075.40184384  .00001538  00000+0  58325-3 0  9992
2 25420  44.9970 193.9836 0004810 151.6424 208.4685 14.35085857337274
ORBCOMM FM21 [-]        
1 25475U 98053A   24075.69864934  .00001062  00000+0  41829-3 0  9990
2 25475  45.0078 276.8320 0000955 104.1585 255.9368 14.35048245331337
ORBCOMM FM23 [-]        
1 25477U 98053C   24075.65870381  .00001225  00000+0  47476-3 0  9996
2 25477  45.0082 279.4627 0001876  86.4999 273.6062 14.35078016331479
